H-2A R/B                
1 28932U 06002B   26193.49479158  .00004780  00000+0  22865-3 0  9994
2 28932  98.2582 351.6228 0050645 175.1484 185.0249 15.18418920113369
RESURS-DK 1             
1 29228U 06021A   26193.55037036  .00000960  00000+0  59854-4 0  9991
2 29228  69.9310 273.8939 0006967 274.1061  85.9309 15.13313451106416
CZ-4B R/B               
1 29507U 06046C   26193.56749840  .00002267  00000+0  11363-3 0  9996
2 29507  97.5443 238.0964 0032310 191.3167 168.7343 15.17968473 78981
CZ-2C R/B               
1 31114U 07010B   26193.28044863  .00000018  00000+0  27573-4 0  9990
2 31114  98.4116 300.4065 0057827 292.4166  67.0893 14.20281357997403
COSMO-SKYMED 1          
1 31598U 07023A   26193.59892769  .00001265  00000+0  11451-3 0  9992
2 31598  97.8844  25.6697 0001206 102.3868 257.7489 14.97211589 33599
COSMOS 2428             
1 31792U 07029A   26193.55941903  .00000185  00000+0  12505-3 0  9996
2 31792  70.9382 301.2054 0007193  86.4041 273.7903 14.12932890981739
SL-16 R/B               
1 31793U 07029B   26193.57103762  .00000046  00000+0  48646-4 0  9994
2 31793  70.9747 269.8693 0002011 256.4266 213.9758 14.14850860983032
KORONAS-FOTON           
1 33504U 09003A   26192.86858644  .00008175  00000+0  16498-3 0  9997
2 33504  82.4297 146.5036 0012389  72.5138 287.7464 15.46244824964910
CZ-2C R/B               
1 37731U 11030B   26193.44576564  .00000553  00000+0  75888-4 0  9990
2 37731  97.8669 148.3790 0050952 305.3401 167.2203 14.81529204808561
H-2A R/B                
1 38341U 12025E   26193.51024188  .00000665  00000+0  64800-4 0  9997
2 38341  98.4848 170.7478 0042351 264.2031  95.4358 14.95833596766870
SHIJIAN-16 (SJ-16)      
1 39358U 13057A   26193.64228993  .00000617  00000+0  62532-4 0  9993
2 39358  74.9737 308.4696 0015882 171.1178 189.0295 14.92666471690143
SL-4 R/B                
1 39679U 14021B   26193.14115566  .00005567  00000+0  11874-3 0  9998
2 39679  51.6063  88.4767 0089812 197.2226 162.5706 15.42441534675462
ALOS-2                  
1 39766U 14029A   26193.56912321  .00001190  00000+0  16618-3 0  9992
2 39766  97.9227 290.3703 0001608  93.8084 266.3312 14.79471192655330
YAOGAN-29               
1 41038U 15069A   26193.61310279 -.00000264  00000+0 -25849-4 0  9992
2 41038  98.0026 222.2848 0000985  14.5007 345.6234 14.83103585574393
ASTRO-H (HITOMI)        
1 41337U 16012A   26193.47426961  .00001447  00000+0  79686-4 0  9993
2 41337  30.9988 270.8641 0009604 147.9668 212.1556 15.10625525571114
HXMT (HUIYAN)           
1 42758U 17034A   26193.65488858  .00002757  00000+0  14039-3 0  9994
2 42758  43.0151  41.2092 0032538 305.1909  54.5894 15.18675606501532
SAOCOM 1A               
1 43641U 18076A   26193.58750942 -.00000346  00000+0 -36926-4 0  9995
2 43641  97.8887  19.9673 0001428  83.9021 276.2355 14.82144320419867
H-2A R/B                
1 43682U 18084L   26193.63511438  .00013595  00000+0  27750-3 0  9992
2 43682  98.8543  78.1023 0020706 310.1111  49.8318 15.46134702425058
SAOCOM 1B               
1 46265U 20059A   26193.61873052  .00000541  00000+0  74528-4 0  9991
2 46265  97.8891  19.0943 0001564  82.6723 277.4668 14.82158555317259
CSS (TIANHE)            
1 48274U 21035A   26193.33050829  .00000806  00000+0  14701-4 0  9997
2 48274  41.4686 169.1964 0002428 290.9815  69.0763 15.58035041297092
COSMOS 2550             
1 48865U 21056A   26193.32488843  .00000599  00000+0  24042-4 0  9994
2 48865  67.1435  23.8662 0008431 270.9704  89.0484 15.33806320282579
CZ-2C R/B               
1 52794U 22058K   26192.98753017  .00028373  00000+0  29589-3 0  9992
2 52794  50.1857  34.3009 0030434   9.2054 350.9472 15.63671011229529
CZ-2C R/B               
1 54039U 22132E   26193.59694027  .00047389  00000+0  32232-3 0  9999
2 54039  97.2893 201.8140 0009965 353.9386   6.1757 15.74723535209945
GSLV R/B                
1 54149U 22138AN  26193.24637013  .00001408  00000+0  11808-3 0  9999
2 54149  87.3818 124.5695 0023807  61.8951 298.4683 14.97374381202564
XRISM                   
1 57800U 23137A   26193.46492365  .00002062  00000+0  10955-3 0  9998
2 57800  31.0006 195.8363 0007833 219.3306 140.6765 15.12657724156698
ACS3                    
1 59588U 24077B   26192.74048558  .00010248  00000+0  71307-2 0  9990
2 59588  97.1723 106.0854 0121011  40.7850 320.2298 13.95349463111466
SPACEMOBILE-003         
1 61045U 24163A   26193.12443383  .00000008  00000+0  15017-4 0  9996
2 61045  52.9645 194.7701 0003953 176.8899 183.2120 15.20757146101564
SPACEMOBILE-005         
1 61046U 24163B   26193.37078742  .00003105  00000+0  15376-3 0  9995
2 61046  52.9783 193.5770 0008680 187.3412 172.7457 15.20767447101595
SPACEMOBILE-001         
1 61047U 24163C   26192.44911905  .00000309  00000+0  28551-4 0  9993
2 61047  52.9736 197.5273 0007475 183.3179 176.7767 15.20792937101458
SPACEMOBILE-002         
1 61048U 24163D   26192.03876027  .00008243  00000+0  38281-3 0  9999
2 61048  52.9623 199.4399 0006620 180.9990 179.0992 15.20841812101395
